[{"OBJECT_NAME":"DONGPO 09","OBJECT_ID":"2022-167D","EPOCH":"2026-03-09T22:41:56.215392","MEAN_MOTION":15.33957076,"ECCENTRICITY":0.00036388,"INCLINATION":97.6808,"RA_OF_ASC_NODE":235.7428,"ARG_OF_PERICENTER":115.2371,"MEAN_ANOMALY":244.9249,"EPHEMERIS_TYPE":0,"CLASSIFICATION_TYPE":"U","NORAD_CAT_ID":54685,"ELEMENT_SET_NO":999,"REV_AT_EPOCH":18022,"BSTAR":0.00050563217,"MEAN_MOTION_DOT":0.00016547,"MEAN_MOTION_DDOT":0},{"OBJECT_NAME":"STARLINK-30114","OBJECT_ID":"2023-079D","EPOCH":"2026-03-09T22:00:01.999584","MEAN_MOTION":15.20507286,"ECCENTRICITY":0.00017524,"INCLINATION":43,"RA_OF_ASC_NODE":105.3808,"ARG_OF_PERICENTER":290.4549,"MEAN_ANOMALY":126.4056,"EPHEMERIS_TYPE":0,"CLASSIFICATION_TYPE":"U","NORAD_CAT_ID":56826,"ELEMENT_SET_NO":999,"REV_AT_EPOCH":578,"BSTAR":0.0506084,"MEAN_MOTION_DOT":0.01232425,"MEAN_MOTION_DDOT":0}]
